start=new Date('2023-06-11T00:00:00.000Z').valueOf();
sats=[{"NORAD_CAT_ID":"53626","REF_FRAME":"TEME","GP_ID":"233654083","CENTER_NAME":"EARTH","DECAY_DATE":null,"TIME_SYSTEM":"UTC","REV_AT_EPOCH":"4434","ARG_OF_PERICENTER":"92.2341","MEAN_ANOMALY":"267.8781","EPHEMERIS_TYPE":"0","MEAN_ELEMENT_THEORY":"SGP4","LAUNCH_DATE":"2022-08-28","OBJECT_TYPE":"PAYLOAD","FILE":"3929969","SITE":"AFETR","PERIOD":"95.437","ECCENTRICITY":"0.00011410","TLE_LINE1":"1 53626U 22104AQ  23161.70609826 -.00000222  00000-0  41339-5 0  9994","RA_OF_ASC_NODE":"56.3292","APOAPSIS":"540.522","MEAN_MOTION_DOT":"-0.00000222","COUNTRY_CODE":"US","SEMIMAJOR_AXIS":"6917.868","ELEMENT_SET_NO":"999","INCLINATION":"53.2171","TLE_LINE2":"2 53626  53.2171  56.3292 0001141  92.2341 267.8781 15.08844162 44341","EPOCH":"2023-06-10T16:56:46.889664","CLASSIFICATION_TYPE":"U","OBJECT_ID":"2022-104AQ","OBJECT_NAME":"STARLINK-4554","MEAN_MOTION":"15.08844162","PERIAPSIS":"538.943","RCS_SIZE":"LARGE","BSTAR":"0.00000413390000","MEAN_MOTION_DDOT":"0.0000000000000"},{"GP_ID":"233655334","CENTER_NAME":"EARTH","DECAY_DATE":null,"TIME_SYSTEM":"UTC","REV_AT_EPOCH":"4434","NORAD_CAT_ID":"53627","REF_FRAME":"TEME","MEAN_ELEMENT_THEORY":"SGP4","LAUNCH_DATE":"2022-08-28","OBJECT_TYPE":"PAYLOAD","FILE":"3929969","SITE":"AFETR","PERIOD":"95.438","ECCENTRICITY":"0.00011500","ARG_OF_PERICENTER":"91.4516","MEAN_ANOMALY":"268.6608","EPHEMERIS_TYPE":"0","APOAPSIS":"540.539","COUNTRY_CODE":"US","MEAN_MOTION_DOT":"-0.00000525","SEMIMAJOR_AXIS":"6917.879","ELEMENT_SET_NO":"999","TLE_LINE1":"1 53627U 22104AR  23161.71347145 -.00000525  00000-0 -14885-4 0  9991","RA_OF_ASC_NODE":"56.3719","OBJECT_NAME":"STARLINK-4595","PERIAPSIS":"538.948","MEAN_MOTION":"15.08840557","RCS_SIZE":"LARGE","BSTAR":"-0.00001488500000","MEAN_MOTION_DDOT":"0.0000000000000","TLE_LINE2":"2 53627  53.2168  56.3719 0001150  91.4516 268.6608 15.08840557 44348","INCLINATION":"53.2168","EPOCH":"2023-06-10T17:07:23.933280","CLASSIFICATION_TYPE":"U","OBJECT_ID":"2022-104AR"},{"NORAD_CAT_ID":"53628","REF_FRAME":"TEME","TIME_SYSTEM":"UTC","REV_AT_EPOCH":"4434","DECAY_DATE":null,"CENTER_NAME":"EARTH","GP_ID":"233655080","EPHEMERIS_TYPE":"0","MEAN_ANOMALY":"272.5523","ARG_OF_PERICENTER":"87.5611","PERIOD":"95.438","ECCENTRICITY":"0.00012380","FILE":"3929969","SITE":"AFETR","MEAN_ELEMENT_THEORY":"SGP4","LAUNCH_DATE":"2022-08-28","OBJECT_TYPE":"PAYLOAD","TLE_LINE1":"1 53628U 22104AS  23161.69873620 -.00001170  00000-0 -55449-4 0  9999","RA_OF_ASC_NODE":"56.2830","ELEMENT_SET_NO":"999","SEMIMAJOR_AXIS":"6917.880","COUNTRY_CODE":"US","MEAN_MOTION_DOT":"-0.00001170","APOAPSIS":"540.601","OBJECT_ID":"2022-104AS","CLASSIFICATION_TYPE":"U","INCLINATION":"53.2176","TLE_LINE2":"2 53628  53.2176  56.2830 0001238  87.5611 272.5523 15.08840277 44349","EPOCH":"2023-06-10T16:46:10.807680","MEAN_MOTION_DDOT":"0.0000000000000","BSTAR":"-0.00005544900000","RCS_SIZE":"LARGE","OBJECT_NAME":"STARLINK-4600","MEAN_MOTION":"15.08840277","PERIAPSIS":"538.888"},{"RCS_SIZE":"LARGE","MEAN_MOTION":"15.08840472","PERIAPSIS":"539.166","OBJECT_NAME":"STARLINK-4602","MEAN_MOTION_DDOT":"0.0000000000000","BSTAR":"-0.00000062496000","CLASSIFICATION_TYPE":"U","EPOCH":"2023-06-10T20:12:51.617376","TLE_LINE2":"2 53629  53.2174  55.7552 0000835  93.9907 266.1181 15.08840472 44362","INCLINATION":"53.2174","OBJECT_ID":"2022-104AT","MEAN_MOTION_DOT":"-0.00000298","COUNTRY_CODE":"US","APOAPSIS":"540.322","ELEMENT_SET_NO":"999","SEMIMAJOR_AXIS":"6917.879","RA_OF_ASC_NODE":"55.7552","TLE_LINE1":"1 53629U 22104AT  23161.84226409 -.00000298  00000-0 -62496-6 0  9996","SITE":"AFETR","FILE":"3929969","OBJECT_TYPE":"PAYLOAD","MEAN_ELEMENT_THEORY":"SGP4","LAUNCH_DATE":"2022-08-28","ECCENTRICITY":"0.00008350","PERIOD":"95.438","MEAN_ANOMALY":"266.1181","ARG_OF_PERICENTER":"93.9907","EPHEMERIS_TYPE":"0","DECAY_DATE":null,"GP_ID":"233654333","CENTER_NAME":"EARTH","REV_AT_EPOCH":"4436","TIME_SYSTEM":"UTC","REF_FRAME":"TEME","NORAD_CAT_ID":"53629"},{"NORAD_CAT_ID":"53630","REF_FRAME":"TEME","CENTER_NAME":"EARTH","GP_ID":"233654583","DECAY_DATE":null,"TIME_SYSTEM":"UTC","REV_AT_EPOCH":"4464","ARG_OF_PERICENTER":"93.7615","MEAN_ANOMALY":"266.3510","EPHEMERIS_TYPE":"0","LAUNCH_DATE":"2022-08-28","MEAN_ELEMENT_THEORY":"SGP4","OBJECT_TYPE":"PAYLOAD","FILE":"3929969","SITE":"AFETR","PERIOD":"95.437","ECCENTRICITY":"0.00011600","TLE_LINE1":"1 53630U 22104AU  23161.67763222 -.00000905  00000-0 -38781-4 0  9991","RA_OF_ASC_NODE":"46.8803","APOAPSIS":"540.532","MEAN_MOTION_DOT":"-0.00000905","COUNTRY_CODE":"US","SEMIMAJOR_AXIS":"6917.865","ELEMENT_SET_NO":"999","INCLINATION":"53.2174","TLE_LINE2":"2 53630  53.2174  46.8803 0001160  93.7615 266.3510 15.08845107 44649","EPOCH":"2023-06-10T16:15:47.423808","CLASSIFICATION_TYPE":"U","OBJECT_ID":"2022-104AU","OBJECT_NAME":"STARLINK-4598","PERIAPSIS":"538.927","MEAN_MOTION":"15.08845107","RCS_SIZE":"LARGE","BSTAR":"-0.00003878100000","MEAN_MOTION_DDOT":"0.0000000000000"},{"ARG_OF_PERICENTER":"92.4887","MEAN_ANOMALY":"267.6235","EPHEMERIS_TYPE":"0","OBJECT_TYPE":"PAYLOAD","LAUNCH_DATE":"2022-08-28","MEAN_ELEMENT_THEORY":"SGP4","SITE":"AFETR","FILE":"3929969","ECCENTRICITY":"0.00011310","PERIOD":"95.437","REF_FRAME":"TEME","NORAD_CAT_ID":"53631","GP_ID":"233654835","CENTER_NAME":"EARTH","DECAY_DATE":null,"REV_AT_EPOCH":"4434","TIME_SYSTEM":"UTC","EPOCH":"2023-06-10T16:51:28.774368","INCLINATION":"53.2173","TLE_LINE2":"2 53631  53.2173  56.3065 0001131  92.4887 267.6235 15.08842673 44340","CLASSIFICATION_TYPE":"U","OBJECT_ID":"2022-104AV","PERIAPSIS":"538.955","MEAN_MOTION":"15.08842673","OBJECT_NAME":"STARLINK-4599","RCS_SIZE":"LARGE","BSTAR":"-0.00002295000000","MEAN_MOTION_DDOT":"0.0000000000000","RA_OF_ASC_NODE":"56.3065","TLE_LINE1":"1 53631U 22104AV  23161.70241637 -.00000653  00000-0 -22950-4 0  9998","APOAPSIS":"540.520","COUNTRY_CODE":"US","MEAN_MOTION_DOT":"-0.00000653","SEMIMAJOR_AXIS":"6917.872","ELEMENT_SET_NO":"999"},{"EPOCH":"2023-06-10T22:26:43.035648","TLE_LINE2":"2 53632  53.2183  45.6449 0001801  76.6201 283.4991 15.08840223 44846","INCLINATION":"53.2183","CLASSIFICATION_TYPE":"U","OBJECT_ID":"2022-104AW","PERIAPSIS":"538.499","MEAN_MOTION":"15.08840223","OBJECT_NAME":"STARLINK-4606","RCS_SIZE":"LARGE","BSTAR":"-0.00004203400000","MEAN_MOTION_DDOT":"0.0000000000000","RA_OF_ASC_NODE":"45.6449","TLE_LINE1":"1 53632U 22104AW  23161.93522032 -.00000957  00000-0 -42034-4 0  9997","APOAPSIS":"540.991","COUNTRY_CODE":"US","MEAN_MOTION_DOT":"-0.00000957","SEMIMAJOR_AXIS":"6917.880","ELEMENT_SET_NO":"999","ARG_OF_PERICENTER":"76.6201","MEAN_ANOMALY":"283.4991","EPHEMERIS_TYPE":"0","OBJECT_TYPE":"PAYLOAD","LAUNCH_DATE":"2022-08-28","MEAN_ELEMENT_THEORY":"SGP4","SITE":"AFETR","FILE":"3929969","ECCENTRICITY":"0.00018010","PERIOD":"95.438","REF_FRAME":"TEME","NORAD_CAT_ID":"53632","CENTER_NAME":"EARTH","GP_ID":"233655580","DECAY_DATE":null,"REV_AT_EPOCH":"4484","TIME_SYSTEM":"UTC"},{"SEMIMAJOR_AXIS":"6917.867","ELEMENT_SET_NO":"999","APOAPSIS":"540.438","MEAN_MOTION_DOT":"-0.00000374","COUNTRY_CODE":"US","RA_OF_ASC_NODE":"45.6668","TLE_LINE1":"1 53633U 22104AX  23161.93890688 -.00000374  00000-0 -54040-5 0  9997","BSTAR":"-0.00000540400000","MEAN_MOTION_DDOT":"0.0000000000000","PERIAPSIS":"539.026","MEAN_MOTION":"15.08844398","OBJECT_NAME":"STARLINK-4593","RCS_SIZE":"LARGE","OBJECT_ID":"2022-104AX","EPOCH":"2023-06-10T22:32:01.554432","TLE_LINE2":"2 53633  53.2172  45.6668 0001020  77.7444 282.3662 15.08844398 44516","INCLINATION":"53.2172","CLASSIFICATION_TYPE":"U","REV_AT_EPOCH":"4451","TIME_SYSTEM":"UTC","GP_ID":"233653834","CENTER_NAME":"EARTH","DECAY_DATE":null,"REF_FRAME":"TEME","NORAD_CAT_ID":"53633","ECCENTRICITY":"0.00010200","PERIOD":"95.437","OBJECT_TYPE":"PAYLOAD","LAUNCH_DATE":"2022-08-28","MEAN_ELEMENT_THEORY":"SGP4","SITE":"AFETR","FILE":"3929969","EPHEMERIS_TYPE":"0","ARG_OF_PERICENTER":"77.7444","MEAN_ANOMALY":"282.3662"},{"EPHEMERIS_TYPE":"0","MEAN_ANOMALY":"279.5877","ARG_OF_PERICENTER":"80.5251","ECCENTRICITY":"0.00012020","PERIOD":"95.438","SITE":"AFETR","FILE":"3929969","OBJECT_TYPE":"PAYLOAD","LAUNCH_DATE":"2022-08-28","MEAN_ELEMENT_THEORY":"SGP4","REF_FRAME":"TEME","NORAD_CAT_ID":"53634","REV_AT_EPOCH":"4481","TIME_SYSTEM":"UTC","DECAY_DATE":null,"CENTER_NAME":"EARTH","GP_ID":"233654084","OBJECT_ID":"2022-104AY","CLASSIFICATION_TYPE":"U","EPOCH":"2023-06-10T17:29:57.333120","INCLINATION":"53.2186","TLE_LINE2":"2 53634  53.2186  46.4921 0001202  80.5251 279.5877 15.08839245 44817","MEAN_MOTION_DDOT":"0.0000000000000","BSTAR":"-0.00006336300000","RCS_SIZE":"LARGE","MEAN_MOTION":"15.08839245","PERIAPSIS":"538.916","OBJECT_NAME":"STARLINK-4592","RA_OF_ASC_NODE":"46.4921","TLE_LINE1":"1 53634U 22104AY  23161.72913580 -.00001296  00000-0 -63363-4 0  9993","ELEMENT_SET_NO":"999","SEMIMAJOR_AXIS":"6917.883","COUNTRY_CODE":"US","MEAN_MOTION_DOT":"-0.00001296","APOAPSIS":"540.579"},{"REF_FRAME":"TEME","NORAD_CAT_ID":"53635","CENTER_NAME":"EARTH","GP_ID":"233655335","DECAY_DATE":null,"REV_AT_EPOCH":"4484","TIME_SYSTEM":"UTC","ARG_OF_PERICENTER":"92.6534","MEAN_ANOMALY":"267.4643","EPHEMERIS_TYPE":"0","OBJECT_TYPE":"PAYLOAD","MEAN_ELEMENT_THEORY":"SGP4","LAUNCH_DATE":"2022-08-28","SITE":"AFETR","FILE":"3929969","ECCENTRICITY":"0.00016150","PERIOD":"95.438","RA_OF_ASC_NODE":"45.6211","TLE_LINE1":"1 53635U 22104AZ  23161.93153571  .00002683  00000-0  18661-3 0  9992","APOAPSIS":"540.880","COUNTRY_CODE":"US","MEAN_MOTION_DOT":"0.00002683","SEMIMAJOR_AXIS":"6917.898","ELEMENT_SET_NO":"999","EPOCH":"2023-06-10T22:21:24.685344","INCLINATION":"53.2180","TLE_LINE2":"2 53635  53.2180  45.6211 0001615  92.6534 267.4643 15.08834173 44846","CLASSIFICATION_TYPE":"U","OBJECT_ID":"2022-104AZ","PERIAPSIS":"538.646","MEAN_MOTION":"15.08834173","OBJECT_NAME":"STARLINK-4587","RCS_SIZE":"LARGE","BSTAR":"0.00018661000000","MEAN_MOTION_DDOT":"0.0000000000000"}];
